start=new Date('2022-03-12T00:00:00.000Z').valueOf();
sats=[{"ELEMENT_SET_NO":"999","CLASSIFICATION_TYPE":"U","ECCENTRICITY":"0.00018100","OBJECT_TYPE":"PAYLOAD","MEAN_ELEMENT_THEORY":"SGP4","RCS_SIZE":"LARGE","MEAN_MOTION_DDOT":"0.0000000000000","REV_AT_EPOCH":"6310","DECAY_DATE":null,"EPOCH":"2022-03-11T11:30:53.622720","EPHEMERIS_TYPE":"0","COUNTRY_CODE":"US","ARG_OF_PERICENTER":"56.8462","TIME_SYSTEM":"UTC","NORAD_CAT_ID":"47374","TLE_LINE1":"1 47374U 21005AB  22070.47978730  .00012900  00000-0  88282-3 0  9992","MEAN_MOTION":"15.06422114","SEMIMAJOR_AXIS":"6925.281","PERIAPSIS":"545.892","LAUNCH_DATE":"2021-01-20","MEAN_MOTION_DOT":"0.00012900","SITE":"AFETR","REF_FRAME":"TEME","RA_OF_ASC_NODE":"132.2939","INCLINATION":"53.0473","OBJECT_ID":"2021-005AB","MEAN_ANOMALY":"303.2700","OBJECT_NAME":"STARLINK-2093","FILE":"3354959","BSTAR":"0.00088282000000","TLE_LINE2":"2 47374  53.0473 132.2939 0001810  56.8462 303.2700 15.06422114 63100","PERIOD":"95.591","CENTER_NAME":"EARTH","GP_ID":"198483326","APOAPSIS":"548.399"},{"MEAN_ELEMENT_THEORY":"SGP4","RCS_SIZE":"LARGE","MEAN_MOTION_DDOT":"0.0000000000000","REV_AT_EPOCH":"6313","ELEMENT_SET_NO":"999","CLASSIFICATION_TYPE":"U","ECCENTRICITY":"0.00016470","OBJECT_TYPE":"PAYLOAD","ARG_OF_PERICENTER":"49.4248","TIME_SYSTEM":"UTC","COUNTRY_CODE":"US","NORAD_CAT_ID":"47375","DECAY_DATE":null,"EPOCH":"2022-03-11T16:24:11.687904","EPHEMERIS_TYPE":"0","SEMIMAJOR_AXIS":"6925.315","PERIAPSIS":"546.039","MEAN_MOTION_DOT":"0.00010020","LAUNCH_DATE":"2021-01-20","MEAN_MOTION":"15.06410925","TLE_LINE1":"1 47375U 21005AC  22070.68346861  .00010020  00000-0  69043-3 0  9995","OBJECT_ID":"2021-005AC","FILE":"3355378","OBJECT_NAME":"STARLINK-2094","MEAN_ANOMALY":"310.6884","CENTER_NAME":"EARTH","GP_ID":"198519152","PERIOD":"95.591","TLE_LINE2":"2 47375  53.0534 131.3645 0001647  49.4248 310.6884 15.06410925 63136","BSTAR":"0.00069043000000","APOAPSIS":"548.321","SITE":"AFETR","INCLINATION":"53.0534","RA_OF_ASC_NODE":"131.3645","REF_FRAME":"TEME"},{"OBJECT_TYPE":"PAYLOAD","ECCENTRICITY":"0.00016830","CLASSIFICATION_TYPE":"U","ELEMENT_SET_NO":"999","REV_AT_EPOCH":"6310","MEAN_MOTION_DDOT":"0.0000000000000","MEAN_ELEMENT_THEORY":"SGP4","RCS_SIZE":"LARGE","EPHEMERIS_TYPE":"0","EPOCH":"2022-03-11T11:42:52.997760","DECAY_DATE":null,"NORAD_CAT_ID":"47376","ARG_OF_PERICENTER":"57.0408","TIME_SYSTEM":"UTC","COUNTRY_CODE":"US","MEAN_MOTION":"15.06397941","TLE_LINE1":"1 47376U 21005AD  22070.48811340  .00001994  00000-0  15276-3 0  9992","MEAN_MOTION_DOT":"0.00001994","LAUNCH_DATE":"2021-01-20","SEMIMAJOR_AXIS":"6925.355","PERIAPSIS":"546.054","INCLINATION":"53.0529","REF_FRAME":"TEME","RA_OF_ASC_NODE":"132.2361","SITE":"AFETR","APOAPSIS":"548.385","CENTER_NAME":"EARTH","GP_ID":"198482325","TLE_LINE2":"2 47376  53.0529 132.2361 0001683  57.0408 303.0742 15.06397941 63107","PERIOD":"95.592","BSTAR":"0.00015276000000","OBJECT_NAME":"STARLINK-2096","FILE":"3354959","MEAN_ANOMALY":"303.0742","OBJECT_ID":"2021-005AD"},{"TLE_LINE1":"1 47377U 21005AE  22070.47337250  .00001612  00000-0  12708-3 0  9999","MEAN_MOTION":"15.06400640","MEAN_MOTION_DOT":"0.00001612","LAUNCH_DATE":"2021-01-20","SEMIMAJOR_AXIS":"6925.347","PERIAPSIS":"546.110","INCLINATION":"53.0569","RA_OF_ASC_NODE":"132.3008","REF_FRAME":"TEME","SITE":"AFETR","CENTER_NAME":"EARTH","GP_ID":"198482575","PERIOD":"95.592","TLE_LINE2":"2 47377  53.0569 132.3008 0001591  68.4963 291.6195 15.06400640 63106","BSTAR":"0.00012708000000","APOAPSIS":"548.313","OBJECT_ID":"2021-005AE","FILE":"3354959","OBJECT_NAME":"STARLINK-2097","MEAN_ANOMALY":"291.6195","ECCENTRICITY":"0.00015910","OBJECT_TYPE":"PAYLOAD","ELEMENT_SET_NO":"999","CLASSIFICATION_TYPE":"U","MEAN_MOTION_DDOT":"0.0000000000000","REV_AT_EPOCH":"6310","RCS_SIZE":"LARGE","MEAN_ELEMENT_THEORY":"SGP4","EPOCH":"2022-03-11T11:21:39.384000","EPHEMERIS_TYPE":"0","DECAY_DATE":null,"ARG_OF_PERICENTER":"68.4963","TIME_SYSTEM":"UTC","COUNTRY_CODE":"US","NORAD_CAT_ID":"47377"},{"LAUNCH_DATE":"2021-01-20","MEAN_MOTION_DOT":"0.00011782","SEMIMAJOR_AXIS":"6925.267","PERIAPSIS":"545.843","MEAN_MOTION":"15.06426610","TLE_LINE1":"1 47378U 21005AF  22070.46600095  .00011782  00000-0  80799-3 0  9993","APOAPSIS":"548.421","BSTAR":"0.00080799000000","TLE_LINE2":"2 47378  53.0534  92.3328 0001862  62.3151 297.8026 15.06426610 63669","PERIOD":"95.590","CENTER_NAME":"EARTH","GP_ID":"198491614","MEAN_ANOMALY":"297.8026","OBJECT_NAME":"STARLINK-2098","FILE":"3355113","OBJECT_ID":"2021-005AF","REF_FRAME":"TEME","RA_OF_ASC_NODE":"92.3328","INCLINATION":"53.0534","SITE":"AFETR","REV_AT_EPOCH":"6366","MEAN_MOTION_DDOT":"0.0000000000000","MEAN_ELEMENT_THEORY":"SGP4","RCS_SIZE":"LARGE","OBJECT_TYPE":"PAYLOAD","ECCENTRICITY":"0.00018620","CLASSIFICATION_TYPE":"U","ELEMENT_SET_NO":"999","NORAD_CAT_ID":"47378","COUNTRY_CODE":"US","ARG_OF_PERICENTER":"62.3151","TIME_SYSTEM":"UTC","EPHEMERIS_TYPE":"0","EPOCH":"2022-03-11T11:11:02.482080","DECAY_DATE":null},{"MEAN_MOTION_DOT":"-0.00000441","LAUNCH_DATE":"2021-01-20","SEMIMAJOR_AXIS":"6925.343","PERIAPSIS":"545.943","MEAN_MOTION":"15.06401809","TLE_LINE1":"1 47379U 21005AG  22070.47336775 -.00000441  00000-0 -10680-4 0  9991","APOAPSIS":"548.473","CENTER_NAME":"EARTH","GP_ID":"198483577","PERIOD":"95.592","TLE_LINE2":"2 47379  53.0555  92.2933 0001827  73.9710 286.1480 15.06401809 63662","BSTAR":"-0.00001068000000","OBJECT_NAME":"STARLINK-2099","FILE":"3354959","MEAN_ANOMALY":"286.1480","OBJECT_ID":"2021-005AG","INCLINATION":"53.0555","RA_OF_ASC_NODE":"92.2933","REF_FRAME":"TEME","SITE":"AFETR","REV_AT_EPOCH":"6366","MEAN_MOTION_DDOT":"0.0000000000000","MEAN_ELEMENT_THEORY":"SGP4","RCS_SIZE":"LARGE","OBJECT_TYPE":"PAYLOAD","ECCENTRICITY":"0.00018270","CLASSIFICATION_TYPE":"U","ELEMENT_SET_NO":"999","NORAD_CAT_ID":"47379","TIME_SYSTEM":"UTC","ARG_OF_PERICENTER":"73.9710","COUNTRY_CODE":"US","EPHEMERIS_TYPE":"0","EPOCH":"2022-03-11T11:21:38.973600","DECAY_DATE":null},{"TLE_LINE1":"1 47380U 21005AH  22070.56829644  .00001947  00000-0  14962-3 0  9991","MEAN_MOTION":"15.06396780","PERIAPSIS":"545.908","SEMIMAJOR_AXIS":"6925.358","MEAN_MOTION_DOT":"0.00001947","LAUNCH_DATE":"2021-01-20","SITE":"AFETR","INCLINATION":"53.0528","REF_FRAME":"TEME","RA_OF_ASC_NODE":"101.8718","OBJECT_ID":"2021-005AH","FILE":"3355378","OBJECT_NAME":"STARLINK-2100","MEAN_ANOMALY":"305.2122","GP_ID":"198519403","CENTER_NAME":"EARTH","PERIOD":"95.592","TLE_LINE2":"2 47380  53.0528 101.8718 0001900  54.9045 305.2122 15.06396780 63548","BSTAR":"0.00014962000000","APOAPSIS":"548.539","ELEMENT_SET_NO":"999","CLASSIFICATION_TYPE":"U","ECCENTRICITY":"0.00019000","OBJECT_TYPE":"PAYLOAD","MEAN_ELEMENT_THEORY":"SGP4","RCS_SIZE":"LARGE","MEAN_MOTION_DDOT":"0.0000000000000","REV_AT_EPOCH":"6354","DECAY_DATE":null,"EPOCH":"2022-03-11T13:38:20.812416","EPHEMERIS_TYPE":"0","TIME_SYSTEM":"UTC","ARG_OF_PERICENTER":"54.9045","COUNTRY_CODE":"US","NORAD_CAT_ID":"47380"},{"SEMIMAJOR_AXIS":"6925.285","PERIAPSIS":"545.998","LAUNCH_DATE":"2021-01-20","MEAN_MOTION_DOT":"0.00011277","TLE_LINE1":"1 47381U 21005AJ  22070.50975605  .00011277  00000-0  77428-3 0  9998","MEAN_MOTION":"15.06420804","OBJECT_ID":"2021-005AJ","MEAN_ANOMALY":"296.6404","OBJECT_NAME":"STARLINK-2101","FILE":"3355378","TLE_LINE2":"2 47381  53.0521 107.1375 0001663  63.4755 296.6404 15.06420804 63461","BSTAR":"0.00077428000000","PERIOD":"95.591","GP_ID":"198518651","CENTER_NAME":"EARTH","APOAPSIS":"548.301","SITE":"AFETR","RA_OF_ASC_NODE":"107.1375","REF_FRAME":"TEME","INCLINATION":"53.0521","RCS_SIZE":"LARGE","MEAN_ELEMENT_THEORY":"SGP4","MEAN_MOTION_DDOT":"0.0000000000000","REV_AT_EPOCH":"6346","ELEMENT_SET_NO":"999","CLASSIFICATION_TYPE":"U","ECCENTRICITY":"0.00016630","OBJECT_TYPE":"PAYLOAD","COUNTRY_CODE":"US","TIME_SYSTEM":"UTC","ARG_OF_PERICENTER":"63.4755","NORAD_CAT_ID":"47381","DECAY_DATE":null,"EPOCH":"2022-03-11T12:14:02.922720","EPHEMERIS_TYPE":"0"},{"NORAD_CAT_ID":"47382","COUNTRY_CODE":"US","TIME_SYSTEM":"UTC","ARG_OF_PERICENTER":"58.3112","EPHEMERIS_TYPE":"0","EPOCH":"2022-03-11T11:52:12.277056","DECAY_DATE":null,"REV_AT_EPOCH":"6446","MEAN_MOTION_DDOT":"0.0000000000000","RCS_SIZE":"LARGE","MEAN_ELEMENT_THEORY":"SGP4","OBJECT_TYPE":"PAYLOAD","ECCENTRICITY":"0.00018750","CLASSIFICATION_TYPE":"U","ELEMENT_SET_NO":"999","APOAPSIS":"548.469","TLE_LINE2":"2 47382  53.0542 102.1967 0001875  58.3112 301.8060 15.06414035 64469","PERIOD":"95.591","BSTAR":"0.00061751000000","GP_ID":"198491128","CENTER_NAME":"EARTH","MEAN_ANOMALY":"301.8060","OBJECT_NAME":"STARLINK-2102","FILE":"3355119","OBJECT_ID":"2021-005AK","REF_FRAME":"TEME","RA_OF_ASC_NODE":"102.1967","INCLINATION":"53.0542","SITE":"AFETR","LAUNCH_DATE":"2021-01-20","MEAN_MOTION_DOT":"0.00008932","SEMIMAJOR_AXIS":"6925.306","PERIAPSIS":"545.872","MEAN_MOTION":"15.06414035","TLE_LINE1":"1 47382U 21005AK  22070.49458654  .00008932  00000-0  61751-3 0  9993"},{"CLASSIFICATION_TYPE":"U","ELEMENT_SET_NO":"999","OBJECT_TYPE":"PAYLOAD","ECCENTRICITY":"0.00018740","RCS_SIZE":"LARGE","MEAN_ELEMENT_THEORY":"SGP4","REV_AT_EPOCH":"6371","MEAN_MOTION_DDOT":"0.0000000000000","DECAY_DATE":null,"EPHEMERIS_TYPE":"0","EPOCH":"2022-03-11T18:40:49.859040","NORAD_CAT_ID":"47383","COUNTRY_CODE":"US","TIME_SYSTEM":"UTC","ARG_OF_PERICENTER":"58.3611","TLE_LINE1":"1 47383U 21005AL  22070.77835485 -.00000815  00000-0 -35787-4 0  9991","MEAN_MOTION":"15.06404512","PERIAPSIS":"545.902","SEMIMAJOR_AXIS":"6925.335","LAUNCH_DATE":"2021-01-20","MEAN_MOTION_DOT":"-0.00000815","SITE":"AFETR","RA_OF_ASC_NODE":"90.9295","REF_FRAME":"TEME","INCLINATION":"53.0550","MEAN_ANOMALY":"301.7560","OBJECT_NAME":"STARLINK-2103","FILE":"3355378","OBJECT_ID":"2021-005AL","APOAPSIS":"548.498","PERIOD":"95.592","TLE_LINE2":"2 47383  53.0550  90.9295 0001874  58.3611 301.7560 15.06404512 63710","BSTAR":"-0.00003578700000","GP_ID":"198519153","CENTER_NAME":"EARTH"}];
